[{"OBJECT_NAME":"YAOGAN-35 02B","OBJECT_ID":"2022-068B","EPOCH":"2026-03-09T22:54:15.556608","MEAN_MOTION":15.47770078,"ECCENTRICITY":0.00054717,"INCLINATION":34.9994,"RA_OF_ASC_NODE":351.8421,"ARG_OF_PERICENTER":267.7559,"MEAN_ANOMALY":92.2537,"EPHEMERIS_TYPE":0,"CLASSIFICATION_TYPE":"U","NORAD_CAT_ID":52908,"ELEMENT_SET_NO":999,"REV_AT_EPOCH":20725,"BSTAR":0.001158139,"MEAN_MOTION_DOT":0.00062371,"MEAN_MOTION_DDOT":0},{"OBJECT_NAME":"STARLINK-36749","OBJECT_ID":"2026-026P","EPOCH":"2026-03-09T22:00:01.999584","MEAN_MOTION":15.4912068,"ECCENTRICITY":0.00016392,"INCLINATION":97.285,"RA_OF_ASC_NODE":123.4271,"ARG_OF_PERICENTER":90.4639,"MEAN_ANOMALY":305.6307,"EPHEMERIS_TYPE":0,"CLASSIFICATION_TYPE":"U","NORAD_CAT_ID":67734,"ELEMENT_SET_NO":999,"REV_AT_EPOCH":535,"BSTAR":0.0016232845,"MEAN_MOTION_DOT":0.00088987,"MEAN_MOTION_DDOT":0}]
